[{"OBJECT_NAME":"ONEWEB-0098","OBJECT_ID":"2020-020U","EPOCH":"2026-03-09T22:23:24.618912","MEAN_MOTION":13.11414551,"ECCENTRICITY":0.00019014,"INCLINATION":87.8863,"RA_OF_ASC_NODE":40.7976,"ARG_OF_PERICENTER":84.2689,"MEAN_ANOMALY":275.8656,"EPHEMERIS_TYPE":0,"CLASSIFICATION_TYPE":"U","NORAD_CAT_ID":45442,"ELEMENT_SET_NO":999,"REV_AT_EPOCH":28963,"BSTAR":-0.00068343356,"MEAN_MOTION_DOT":-2.3e-6,"MEAN_MOTION_DDOT":0},{"OBJECT_NAME":"ONEWEB-0022","OBJECT_ID":"2020-008E","EPOCH":"2026-03-09T22:21:09.366624","MEAN_MOTION":13.10485077,"ECCENTRICITY":0.00021734,"INCLINATION":87.8781,"RA_OF_ASC_NODE":56.0657,"ARG_OF_PERICENTER":85.762,"MEAN_ANOMALY":274.3756,"EPHEMERIS_TYPE":0,"CLASSIFICATION_TYPE":"U","NORAD_CAT_ID":45135,"ELEMENT_SET_NO":999,"REV_AT_EPOCH":29535,"BSTAR":0.00023613537,"MEAN_MOTION_DOT":9.5e-7,"MEAN_MOTION_DDOT":0}]
